SENTINEL-6A             
1 46984U 20086A   26193.92861780 -.00000059  00000+0  81705-5 0  9999
2 46984  66.0413  81.5884 0007812 269.9474  90.0646 12.80930069263628
SENTINEL-6B             
1 66514U 25264A   26193.92896572 -.00000059  00000+0  10665-4 0  9996
2 66514  66.0413  81.7138 0007871 268.7841  91.2272 12.80930082 30460
